RSP-03                  
1 65732U 98067XL  26038.53927976  .00824092  33140-3  15121-2 0  9991
2 65732  51.6154 202.1944 0006871 290.5038  69.5234 16.00678585 22142
YOTSUBA-KULOVER         
1 65941U 98067XN  26038.56776926  .00146189  00000+0  11450-2 0  9993
2 65941  51.6241 212.2568 0004066 247.4596 112.5971 15.70598604 18757
BOTAN                   
1 65942U 98067XP  26038.64166956  .00363445  00000+0  15398-2 0  9990
2 65942  51.6181 208.2035 0006147 270.8199  89.2099 15.83788445 18812
E-KAGAKU-1              
1 65943U 98067XQ  26038.50486266  .00159163  00000+0  12502-2 0  9999
2 65943  51.6260 212.5982 0003452 263.4572  96.6032 15.70487632 18740
HTV-X1                  
1 66174U 25241A   26038.50283897  .00012054  00000+0  23050-3 0  9993
2 66174  51.6315 221.5822 0011000  74.6214 285.5989 15.48462076   510
SHENZHOU-22             
1 66645U 25272A   26038.37011297  .00025203  00000+0  31398-3 0  9992
2 66645  41.4682  32.4562 0005154  20.8908 339.2140 15.59318584267644
SOYUZ-MS 28             
1 66664U 25275A   26038.50283897  .00012054  00000+0  23050-3 0  9994
2 66664  51.6315 221.5822 0011000  74.6214 285.5989 15.48462076  1289
DUPLEX                  
1 66906U 98067XS  26038.51247973  .00042973  00000+0  65342-3 0  9991
2 66906  51.6288 220.1491 0001367  83.1919 276.9227 15.54105616 10433
ISS OBJECT XT           
1 66907U 98067XT  26038.50608215  .00139388  00000+0  15833-2 0  9997
2 66907  51.6269 218.6048 0002114 217.1792 142.9055 15.61360236 10454
ISS OBJECT XU           
1 66908U 98067XU  26038.50552559  .00139077  00000+0  15777-2 0  9999
2 66908  51.6264 218.5996 0001723 222.4065 137.6796 15.61395900 10457
